ENVISAT                 
1 27386U 02009A   23031.52531824  .00000248  00000+0  95139-4 0  9990
2 27386  98.2129   7.2830 0001198  88.3397  22.1122 14.38232273 96310
IDEFIX & ARIANE 42P R/B 
1 27422U 02021B   23031.07472390  .00000300  00000+0  13394-3 0  9998
2 27422  98.4771 335.5454 0011105 288.5554  71.4422 14.29546295 81971
AQUA                    
1 27424U 02022A   23031.57335418  .00000916  00000+0  21103-3 0  9995
2 27424  98.2733 336.6201 0000775 102.8085  13.2178 14.57639111103416
CZ-4B R/B               
1 27432U 02024C   23031.13512102  .00000039  00000+0  43916-4 0  9998
2 27432  99.0411  64.2208 0050226 354.9074  34.7906 14.14176911 69002
MIDORI II (ADEOS-II)    
1 27597U 02056A   23031.45915121  .00000344  00000+0  15696-3 0  9990
2 27597  98.6339 337.2077 0002081  74.9756 285.1655 14.27746674 48505
H-2A R/B                
1 27601U 02056E   23031.53811531  .00000399  00000+0  15876-3 0  9995
2 27601  98.1846  30.2871 0070836 301.4827 167.2257 14.32217757 51829
CZ-4B R/B               
1 28059U 03049C   23031.26578595  .00000419  00000+0  11161-3 0  9992
2 28059  98.5450 336.9267 0051043  91.3992 269.3051 14.52963638 21892
CZ-2C R/B               
1 28222U 04012C   23031.48457057  .00006742  00000+0  35808-3 0  9997
2 28222  97.7940  22.1626 0042273 353.3560   6.7106 15.14882335 30751
SL-16 R/B               
1 28353U 04021B   23031.52384215 -.00000145  00000+0 -50858-4 0  9998
2 28353  71.0014  89.9241 0007230 304.5349  55.5091 14.14300633962590
CZ-4B R/B               
1 28415U 04035C   23031.55167572  .00002835  00000+0  17671-3 0  9991
2 28415  97.4895  71.8577 0047572 319.5044  40.2649 15.09430583  7998
CZ-2C R/B               
1 28480U 04046B   23031.46360843  .00000223  00000+0  10022-3 0  9993
2 28480  98.0924   6.5441 0140241 266.9265  91.5862 14.25935233946933
ARIANE 5 R/B            
1 28499U 04049H   23031.28467479  .00000798  00000+0  10351-3 0  9991
2 28499  98.1167 155.4557 0091880  58.8765 324.6764 14.80820299977797
CZ-2D R/B               
1 28738U 05024B   23031.53137221  .00004992  00000+0  26441-3 0  9995
2 28738  97.3539  37.0505 0013021 104.2842 255.9838 15.15778637966274
SUZAKU (ASTRO-EII)      
1 28773U 05025A   23030.94132823  .00008497  00000+0  33257-3 0  9999
2 28773  31.3790 251.5491 0003325 165.2422 194.8325 15.24486581969723
ALOS (DAICHI)           
1 28931U 06002A   23031.48154292  .00001817  00000+0  35826-3 0  9998
2 28931  97.9675 353.2571 0001138  21.3470 338.7674 14.63644860907774
H-2A R/B                
1 28932U 06002B   23031.57501064  .00003496  00000+0  30478-3 0  9995
2 28932  98.2618  91.2970 0085602  63.3397 297.6557 14.94789622924200
AKARI (ASTRO-F)         
1 28939U 06005A   23031.33985459  .00094325  00000+0  83949-3 0  9995
2 28939  98.1802 141.9189 0042123 176.7769 183.3769 15.67007012928464
CZ-4B R/B               
1 29093U 06015B   23030.63677748  .00100263  00000+0  47860-3 0  9990
2 29093  97.5618 273.1092 0024214  58.8545 301.5093 15.82090072935230
RESURS-DK 1             
1 29228U 06021A   23031.41267674  .00001522  00000+0  11717-3 0  9997
2 29228  69.9341 267.7952 0001635  37.8489 322.2787 15.03967154916647
GENESIS 1               
1 29252U 06029A   23031.43358804  .00007310  00000+0  30645-3 0  9992
2 29252  64.5217  41.1792 0041884 229.1839 130.5652 15.23473493913668
CZ-4B R/B               
1 29507U 06046C   23031.41516100  .00002322  00000+0  17447-3 0  9990
2 29507  97.7076  65.4016 0044757 180.8337 179.2820 15.02808934889093
CZ-2C R/B               
1 31114U 07010B   23031.44777189  .00000085  00000+0  58193-4 0  9996
2 31114  98.2580 194.0500 0059461 354.1823   5.8657 14.19493178818908
COSMO-SKYMED 1          
1 31598U 07023A   23031.52007985  .00000358  00000+0  51486-4 0  9996
2 31598  97.8884 216.9475 0001362  92.1147 268.0251 14.82150555846741
GENESIS 2               
1 31789U 07028A   23031.48096093  .00007548  00000+0  31993-3 0  9994
2 31789  64.4956  84.8135 0059760 281.3817  78.0599 15.22245351860574
COSMOS 2428             
1 31792U 07029A   23031.50718404 -.00000262  00000+0 -11553-3 0  9997
2 31792  70.9441  61.5758 0007546  59.8145 300.3723 14.12578513804057
SL-16 R/B               
1 31793U 07029B   23031.46375035 -.00000134  00000+0 -44747-4 0  9992
2 31793  70.9766  33.8521 0003096 272.1389 199.8508 14.14509427805103
KORONAS-FOTON           
1 33504U 09003A   23031.37064137  .00004566  00000+0  21782-3 0  9990
2 33504  82.4420 348.3439 0017168 193.0937 166.9854 15.18709228772532
CZ-2C R/B               
1 37731U 11030B   23031.49814777  .00001321  00000+0  19580-3 0  9994
2 37731  97.6977  11.6906 0060108  70.2173  42.0556 14.75473959622675
H-2A R/B                
1 38341U 12025E   23031.42798828  .00001592  00000+0  18750-3 0  9996
2 38341  98.4763 266.5423 0054933  34.1028 326.3695 14.85344650579485
CUSAT 2 & FALCON 9 R/B  
1 39271U 13055G   23031.18498696  .00025523  00000+0  49962-3 0  9995
2 39271  80.9545 302.4224 0484411 131.2228 233.1804 14.74213277490184
SHIJIAN-16 (SJ-16)      
1 39358U 13057A   23031.48227935  .00001696  00000+0  19376-3 0  9993
2 39358  74.9738 160.5826 0018996 328.0785  31.9246 14.86587990502876
CZ-2C R/B               
1 39364U 13059B   23031.09752302  .00012509  00000+0  34704-3 0  9997
2 39364  97.1292  81.9094 0037037 233.1752 126.6093 15.36347894515098
SL-4 R/B                
1 39679U 14021B   23031.24940772  .00008118  00000+0  37176-3 0  9990
2 39679  51.6144 333.8084 0159865  31.7579 329.2915 15.10718919483527
ALOS-2                  
1 39766U 14029A   23031.46286535 -.00000039  00000+0  16998-5 0  9995
2 39766  97.9195 130.3272 0001504  91.3958 268.7419 14.79472285469348
SL-27 R/B               
1 40354U 14084B   23031.54013716  .00011435  00000+0  21656-3 0  9995
2 40354  74.7346 199.5041 0031332 263.2718  96.4932 15.47828045455831
YAOGAN-29               
1 41038U 15069A   23031.44729021  .00000747  00000+0  10314-3 0  9994
2 41038  98.0627  37.8061 0002410  85.2754 274.8737 14.81085791388037
ASTRO-H (HITOMI)        
1 41337U 16012A   23031.42414388  .00002171  00000+0  16281-3 0  9992
2 41337  31.0061  51.9514 0012182 183.7995 176.2549 15.00186178381375
HXMT (HUIYAN)           
1 42758U 17034A   23031.45782600  .00005014  00000+0  29766-3 0  9994
2 42758  43.0158 173.0438 0011398 280.3706 184.6450 15.12193472310673
CZ-2C R/B               
1 43521U 18054D   23031.34658868  .00009082  00000+0  43552-3 0  9990
2 43521  35.1544  25.1869 0076030 302.1317  57.2037 15.15600133254249
AEOLUS                  
1 43600U 18066A   23031.47013533  .00100620  53320-5  39386-3 0  9998
2 43600  96.7281  38.8406 0011706  97.1480 263.1125 15.86937528257289
SAOCOM 1A               
1 43641U 18076A   23031.46092123  .00000661  00000+0  89610-4 0  9996
2 43641  97.8854 219.8985 0001402  90.3704 269.7647 14.82154718233508
H-2A R/B                
1 43682U 18084L   23031.57095905  .00004022  00000+0  27032-3 0  9997
2 43682  98.8992  34.3688 0051926 232.9303 126.7167 15.06417591233633
SAOCOM 1B               
1 46265U 20059A   23031.49206658 -.00001108  00000+0 -13268-3 0  9992
2 46265  97.8856 218.9918 0001245  79.4014 280.7441 14.82144536130900
CSS (TIANHE)            
1 48274U 21035A   23031.62202248  .00013416  00000+0  15906-3 0  9999
2 48274  41.4749 268.5375 0002212  95.6359 356.5100 15.60973661100472
2022-019U               
1 51842U 22019U   23031.60831407  .00015864  00000+0  54750-3 0  9999
2 51842  97.5390 116.2398 0063626 106.6503 359.1696 15.28084708 51568
SZ-13 MODULE            
1 52260U 21092C   23031.57437139  .00154903  16451-4  38603-3 0  9993
2 52260  41.4709 232.9067 0014346 321.4856  38.4970 15.94915234 45416
CZ-2C R/B               
1 52794U 22058K   23031.56261687  .00005259  00000+0  27925-3 0  9992
2 52794  50.1717 167.1497 0100386 282.2496  76.7230 15.12652283 36791
CZ-2C R/B               
1 53131U 22082D   23031.56330629  .00018976  00000+0  44602-3 0  9999
2 53131  97.3556  44.9567 0044002  17.0976 343.1741 15.41007073 30672
CREW DRAGON 4 DEB       
1 54047U 22042B   23031.06606048  .00099981  00000+0  87279-3 0  9990
2 54047  51.3262 276.0747 0003391 140.4236 219.5573 15.68147051 16906
